#dP2019 11 22  0  0  0.00000000      96 __u+U ITR00 FIT  IAC
## 2080 432000.00000000   900.00000000 58809 0.0000000000000
+  113   C01C02C03C04C05C06C07C08C09C10C11C13C14C16C19C20C21
+        C22C23C24C25C26C27C28C29C30C32C33C34C35C36C37E01E02
+        E03E04E05E07E08E09E11E12E13E14E15E18E19E21E24E25E26
+        E27E30E31E33E36G01G02G03G04G05G06G07G08G09G10G11G12
+        G13G15G16G17G18G19G20G21G22G23G24G25G26G27G28G29G30
+        G31G32J01J02J03J07R01R02R03R05R06R07R08R09R10R11R12
+        R13R14R15R16R17R18R19R20R21R23R26  0  0  0  0  0  0
++        13  0 13 13 13  8  9  8  8  8  7  8  8  8  8  8  8
++         8  8  7  7  8  8  7  8  8  8  8  8  8  9  8  4  4
++         5  4  4  4  4  4  4  4  4  4  4  4  4  4  4  4  4
++         4  4  4  4  4  3  3  3  4  3  3  3  3  3  3  3  3
++         3  3  3  3  4  3  3  3  3  3  3  3  3  3  3  3  4
++         3  3  9  8  8 14  6  5  6  6 11  6  5  5 11  5  5
++         6  5  5  6  5  5  6  6  5  5  8  0  0  0  0  0  0
%c M  cc GPS ccc cccc cccc cccc cccc ccccc ccccc ccccc ccccc
%c cc cc ccc ccc cccc cccc cccc cccc ccccc ccccc ccccc ccccc
%f  0.0000000  0.000000000  0.00000000000  0.000000000000000
%f  0.0000000  0.000000000  0.00000000000  0.000000000000000
%i    0    0    0    0      0      0      0      0         0
%i    0    0    0    0      0      0      0      0         0
/* INFORMATION & ANALYSIS CENTER (IAC)            RAPID DATA
/* S/V CLOCKS ARE ALIGNED TO GNSS TIME                      
/* G:C1WC2W R:C1PC2P E:C1XC5X C:C2IC6I J:C1CC2S             
/* PCV:IGS14_2076 OL/AL:FES2004  NONE     YN ORB:CoN CLK:CoN
*  2019 11 22  6 30  0.00000000
PC01 -32357.935026  27031.126923   -951.336879    169.807603
PC02      0.000000      0.000000      0.000000 999999.999999
PC03 -14800.109692  39503.490434   -473.636432      6.705021
PC04 -39624.208839  14423.269551   -588.451626   -421.894444
PC05  21904.305904  36038.259226    639.520054   -123.657134
PC06 -12078.700235  21743.335211  34382.080366    310.427684
PC07 -24952.593175  31790.543875 -12651.530460    221.721673
PC08  -9242.019262  35633.824210 -20170.937710    -38.572374
PC09   5867.011710  28491.545138  30868.346674    133.696373
PC10 -10755.984463  32718.520437 -24403.882318   -389.832439
PC11  19329.589122   1035.939567  20138.051786    -16.662406
PC13    306.352871  41607.980835  -5788.441334    118.671429
PC14  27035.480660  -6764.154991    711.552434    333.676141
PC16  -8548.521391  22693.751836  34527.096146   -927.354095
PC19 -23665.189086  12341.709404   8185.636002    251.365999
PC20 -26415.366629    652.014644  -9009.391080   -321.682059
PC21  13475.563639  11835.131688  21382.810382    164.437869
PC22  -7160.855913  17041.435632  20909.327469   -403.084859
PC23   5977.702190 -27156.965469   2378.218459   -876.878515
PC24  16154.736093   1891.819431 -22675.797226   -879.834291
PC25  15152.383000 -18633.638984 -14226.702546   -422.265913
PC26   8010.573736  19786.007512 -17957.605889    469.366443
PC27 -17215.809607 -21654.350772   3600.799398    229.414729
PC28  -1973.135587 -20717.838993  18604.335571    220.515692
PC29 -14063.349632   8230.378827 -22656.029467    149.480236
PC30 -22724.961731  -9280.568358 -13256.128591    228.287895
PC32 -13583.216787 -11737.397978 -21361.927568   -864.857401
PC33  23633.515940 -12417.832789  -8101.024452   -592.586160
PC34  22684.101319   9060.313997  13510.494392   -252.888752
PC35   2556.291025  20637.599222 -18616.609248   -579.139325
PC36 -15648.912995  18092.640445  14402.268925   -899.350894
PC37  -7186.694545 -20432.071389  17628.886916   -786.913528
PE01  20757.127388 -20599.007206  -4583.833467   -736.938129
PE02 -20734.172571  20625.375247   4533.253896     93.593751
PE03 -21013.792205   9822.531753  18389.542225   -235.714977
PE04    559.410649 -17234.430681 -24062.214835   -410.544489
PE05 -29343.717659  -3418.093133   1883.986048   -429.178867
PE07  20473.517449  14580.945060  15623.197719   -302.541862
PE08   -226.855416  17112.599185  24145.265117   6259.708086
PE09 -20664.349402 -14317.588981 -15641.995193   6245.048912
PE11 -15128.325017 -24148.892418  -7998.462696     82.172982
PE12  -2650.306306 -27241.484159  11269.443089   6087.916532
PE13  15139.058598  24193.741075   7849.009491    395.628793
PE14  23706.223861  10858.498495   3171.484858   -803.341935
PE15   3031.539132  27295.540468 -11022.466025    886.966630
PE18 -26024.677833    344.498278 -16813.068916   -898.515043
PE19  22618.387589  -8519.374810 -17093.291900     -2.793165
PE21  21013.615033  -4429.421344 -20365.983873   -567.247706
PE24  -8941.300562 -14516.987083  24195.553107   5754.541149
PE25 -20986.174901   4325.021148  20433.521732   -496.441745
PE26  18452.486697   6738.038722  22144.928868   3848.991223
PE27   8949.957636  14464.762525 -24213.673232    340.587358
PE30  -8458.659598  24776.706764 -13800.343910   4364.968810
PE31   8310.913278 -24808.344595  13856.861256   -470.597654
PE33  10882.764508 -14394.322804  23473.788038   -471.731569
PE36 -18385.705451  -6912.789706 -22137.091339    633.722339
PG01  13575.472924  -8795.125576  20795.142786   -205.414551
PG02 -13646.540775 -14961.481611 -16621.777369   -351.681440
PG03  22866.937812 -13240.316414   2101.376347    -40.507144
PG04  11096.750107 -11015.729423 -21388.902843    -11.723753
PG05 -19394.669072  -2326.094292 -18218.616014     -3.759074
PG06  -6371.707546 -24708.287203  -7276.540844   -131.262015
PG07   6474.280320 -23099.101880 -10578.363330   -154.039494
PG08  24314.667480   4032.468243  10218.488962    -14.193383
PG09   9811.227003 -12231.880548 -21490.478980    -89.589218
PG10  -2463.564677  17850.065080  19500.734745   -144.031924
PG11  14647.937881  -6584.704772  20638.906634   -440.990689
PG12 -24133.235046   8518.522101   6554.770644    180.981111
PG13 -23082.716580 -12765.896870   3314.110549    -31.325133
PG15 -24587.193708  -1316.211906  10144.479104   -270.931213
PG16  17814.367611   5157.082139 -19372.807761    -95.575266
PG17  -8159.980635 -18366.682518  17826.866113    167.424299
PG18  15154.920722    350.151550  21311.886588    101.788861
PG19 -14756.938574 -18600.747428  11590.954536   -236.438403
PG20 -11058.136535  20936.458457  11734.768638    527.514768
PG21  -1974.511565  25421.305766  -7004.614213    -82.293306
PG22  23135.364003  -8494.150622   9984.776583   -773.249641
PG23  19186.419196  -4932.478885 -17524.727894   -154.080915
PG24 -14661.422329   6689.762013  20889.169971     -5.239591
PG25 -18491.521657  17679.646340  -6819.900025    -17.306772
PG26   9736.432172  12066.180322 -21587.665686     89.591751
PG27  23567.796216  12584.265790  -1006.175645   -127.517118
PG28   3019.399954 -17266.269790  20599.165643    754.038593
PG29 -11415.155932  10034.840510 -21814.315010     37.811639
PG30   -540.901669 -26448.325059     60.552246    -89.295785
PG31   7407.622970  23394.329404  -9574.149155     -4.842700
PG32   9454.394273  18120.827058  17091.159886    132.692048
PJ01 -30740.485194  26247.206429  17089.137784   -331.006781
PJ02 -31118.927134  27212.468891  13312.682585     -0.117973
PJ03 -24779.878404  17407.921277 -24725.398406     -7.146222
PJ07 -25401.127287  33647.146808     27.005887     -0.027379
PR01 -20674.950971  -4978.640142 -14102.976002     53.033482
PR02 -24267.183951   4648.216725   6250.559508    398.919405
PR03 -11861.281006  10454.144569  20032.319152      5.235523
PR05  22184.585027   4022.385457  11954.385016     39.863938
PR06  23874.191359  -5637.102477  -7062.514158    166.122963
PR07  11435.233287 -10500.621114 -20226.091458    -29.756290
PR08  -7087.339930 -10133.940648 -22263.847397     14.280871
PR09  14895.027073 -15314.013862 -13870.088340    102.366484
PR10    185.674529 -19147.268947  16878.506733    -51.601498
PR11    266.972689 -19215.390468  16768.580562     19.170018
PR12  -9703.644208  -4983.466465  23089.703428     81.367286
PR13 -14656.261285  13183.191806  16177.431200    -31.297429
PR14 -11096.623771  22975.006588    -74.384127     45.318278
PR15  -1063.758289  19692.027919 -16151.313832    104.845775
PR16  10170.364576   4410.160564 -22990.399735      0.096814
PR17  -1265.928135  14971.443089 -20587.014503    277.799881
PR18  10485.922899  21953.633860  -7725.762352     15.360023
PR19  16040.758833  17641.520961   9051.474258    -65.184065
PR20  12566.226492   1314.638689  22176.608053   -396.858736
PR21    603.072300 -15545.023655  20231.134057    -86.821846
PR23 -16479.089219 -13157.132797 -14362.196583    268.383877
PR26  14186.127927   4522.288957  20715.523149     10.296640
EOF
